RISAT 1                 
1 38248U 12017A   17346.52088411  .00000593  00000-0  41109-4 0  9992
2 38248  97.5731 351.9440 0004828 131.5990  20.0937 15.09352094310132
